{
  "type": "FeatureCollection",
  "features": [
    {
      "type": "Feature",
      "properties": {
        "norad_id": 31263,
        "name": "FENGYUN 1C DEB",
        "group": "fengyun-1c-debris",
        "lat": -19.536327893289133,
        "lon": 97.84946548463365,
        "alt_km": 323.75176309135804,
        "timestamp": "2025-12-20T16:47:36.567995+00:00",
        "meta_object_name": "FENGYUN 1C DEB",
        "meta_object_id": "1999-025BMV",
        "meta_epoch": "2025-12-17T17:49:28.390944",
        "meta_mean_motion": 15.68261869,
        "meta_eccentricity": 0.00247871,
        "meta_inclination": 98.9827,
        "meta_ra_of_asc_node": 277.2526,
        "meta_arg_of_pericenter": 119.3199,
        "meta_mean_anomaly": 241.0538,
        "meta_ephemeris_type": 0,
        "meta_classification_type": "U",
        "meta_norad_cat_id": 31263,
        "meta_element_set_no": 999,
        "meta_rev_at_epoch": 97244,
        "meta_bstar": 0.017261788,
        "meta_mean_motion_dot": 0.02239772,
        "meta_mean_motion_ddot": 0,
        "tle_line1": "1 31263U 99025BMV 25351.74268971  .02239772  00000+0  17262-1 0  9990",
        "tle_line2": "2 31263  98.9827 277.2526 0024787 119.3199 241.0538 15.68261869972443"
      },
      "geometry": {
        "type": "Point",
        "coordinates": [
          97.84946548463365,
          -19.536327893289133
        ]
      }
    },
    {
      "type": "Feature",
      "properties": {
        "norad_id": 31264,
        "name": "FENGYUN 1C DEB",
        "group": "fengyun-1c-debris",
        "lat": -73.90855409300971,
        "lon": 38.08611339410281,
        "alt_km": 837.566715137229,
        "timestamp": "2025-12-20T16:47:36.568006+00:00",
        "meta_object_name": "FENGYUN 1C DEB",
        "meta_object_id": "1999-025BMW",
        "meta_epoch": "2025-12-20T04:29:17.942208",
        "meta_mean_motion": 14.18606292,
        "meta_eccentricity": 8.902e-05,
        "meta_inclination": 99.1146,
        "meta_ra_of_asc_node": 251.3741,
        "meta_arg_of_pericenter": 8.6093,
        "meta_mean_anomaly": 151.0818,
        "meta_ephemeris_type": 0,
        "meta_classification_type": "U",
        "meta_norad_cat_id": 31264,
        "meta_element_set_no": 999,
        "meta_rev_at_epoch": 96534,
        "meta_bstar": 0.00041232071,
        "meta_mean_motion_dot": 8.07e-06,
        "meta_mean_motion_ddot": 0,
        "tle_line1": "1 31264U 99025BMW 25354.18701322  .00000807  00000+0  41232-3 0  9993",
        "tle_line2": "2 31264  99.1146 251.3741 0000890   8.6093 151.0818 14.18606292965344"
      },
      "geometry": {
        "type": "Point",
        "coordinates": [
          38.08611339410281,
          -73.90855409300971
        ]
      }
    },
    {
      "type": "Feature",
      "properties": {
        "norad_id": 31266,
        "name": "FENGYUN 1C DEB",
        "group": "fengyun-1c-debris",
        "lat": 36.207458668741786,
        "lon": -28.726738723669957,
        "alt_km": 880.602573793004,
        "timestamp": "2025-12-20T16:47:36.568016+00:00",
        "meta_object_name": "FENGYUN 1C DEB",
        "meta_object_id": "1999-025BMY",
        "meta_epoch": "2025-12-19T22:11:19.072320",
        "meta_mean_motion": 14.22346034,
        "meta_eccentricity": 0.0129486,
        "meta_inclination": 99.2584,
        "meta_ra_of_asc_node": 337.3177,
        "meta_arg_of_pericenter": 263.6482,
        "meta_mean_anomaly": 124.9762,
        "meta_ephemeris_type": 0,
        "meta_classification_type": "U",
        "meta_norad_cat_id": 31266,
        "meta_element_set_no": 999,
        "meta_rev_at_epoch": 97308,
        "meta_bstar": 0.00022646,
        "meta_mean_motion_dot": 4.99e-06,
        "meta_mean_motion_ddot": 0,
        "tle_line1": "1 31266U 99025BMY 25353.92452630  .00000499  00000+0  22646-3 0  9996",
        "tle_line2": "2 31266  99.2584 337.3177 0129486 263.6482 124.9762 14.22346034973086"
      },
      "geometry": {
        "type": "Point",
        "coordinates": [
          -28.726738723669957,
          36.207458668741786
        ]
      }
    },
    {
      "type": "Feature",
      "properties": {
        "norad_id": 31268,
        "name": "FENGYUN 1C DEB",
        "group": "fengyun-1c-debris",
        "lat": 79.28316909061719,
        "lon": -17.871828804410214,
        "alt_km": 856.077282265207,
        "timestamp": "2025-12-20T16:47:36.568026+00:00",
        "meta_object_name": "FENGYUN 1C DEB",
        "meta_object_id": "1999-025BNA",
        "meta_epoch": "2025-12-13T20:28:59.966112",
        "meta_mean_motion": 14.06415523,
        "meta_eccentricity": 0.00495712,
        "meta_inclination": 98.7556,
        "meta_ra_of_asc_node": 30.024,
        "meta_arg_of_pericenter": 180.2607,
        "meta_mean_anomaly": 179.8544,
        "meta_ephemeris_type": 0,
        "meta_classification_type": "U",
        "meta_norad_cat_id": 31268,
        "meta_element_set_no": 999,
        "meta_rev_at_epoch": 62048,
        "meta_bstar": 0.00090714334,
        "meta_mean_motion_dot": 1.473e-05,
        "meta_mean_motion_ddot": 0,
        "tle_line1": "1 31268U 99025BNA 25347.85347183  .00001473  00000+0  90714-3 0  9993",
        "tle_line2": "2 31268  98.7556  30.0240 0049571 180.2607 179.8544 14.06415523620480"
      },
      "geometry": {
        "type": "Point",
        "coordinates": [
          -17.871828804410214,
          79.28316909061719
        ]
      }
    },
    {
      "type": "Feature",
      "properties": {
        "norad_id": 31269,
        "name": "FENGYUN 1C DEB",
        "group": "fengyun-1c-debris",
        "lat": -0.48252702795264973,
        "lon": 52.40388308556474,
        "alt_km": 689.3554595687128,
        "timestamp": "2025-12-20T16:47:36.568036+00:00",
        "meta_object_name": "FENGYUN 1C DEB",
        "meta_object_id": "1999-025BNB",
        "meta_epoch": "2025-12-20T03:21:38.961792",
        "meta_mean_motion": 14.43821235,
        "meta_eccentricity": 0.02393959,
        "meta_inclination": 98.1803,
        "meta_ra_of_asc_node": 231.9347,
        "meta_arg_of_pericenter": 252.9257,
        "meta_mean_anomaly": 262.5588,
        "meta_ephemeris_type": 0,
        "meta_classification_type": "U",
        "meta_norad_cat_id": 31269,
        "meta_element_set_no": 999,
        "meta_rev_at_epoch": 96593,
        "meta_bstar": 0.0012064858,
        "meta_mean_motion_dot": 5.779e-05,
        "meta_mean_motion_ddot": 0,
        "tle_line1": "1 31269U 99025BNB 25354.14003428  .00005779  00000+0  12065-2 0  9990",
        "tle_line2": "2 31269  98.1803 231.9347 0239395 252.9257 262.5588 14.43821235965935"
      },
      "geometry": {
        "type": "Point",
        "coordinates": [
          52.40388308556474,
          -0.48252702795264973
        ]
      }
    },
    {
      "type": "Feature",
      "properties": {
        "norad_id": 31272,
        "name": "FENGYUN 1C DEB",
        "group": "fengyun-1c-debris",
        "lat": 73.1692968998468,
        "lon": 78.72175149924468,
        "alt_km": 733.6453860440906,
        "timestamp": "2025-12-20T16:47:36.568047+00:00",
        "meta_object_name": "FENGYUN 1C DEB",
        "meta_object_id": "1999-025BNE",
        "meta_epoch": "2025-12-20T09:33:44.449632",
        "meta_mean_motion": 14.22935455,
        "meta_eccentricity": 0.0106994,
        "meta_inclination": 99.0919,
        "meta_ra_of_asc_node": 226.4489,
        "meta_arg_of_pericenter": 91.0458,
        "meta_mean_anomaly": 270.298,
        "meta_ephemeris_type": 0,
        "meta_classification_type": "U",
        "meta_norad_cat_id": 31272,
        "meta_element_set_no": 999,
        "meta_rev_at_epoch": 97098,
        "meta_bstar": 0.00035428,
        "meta_mean_motion_dot": 7.99e-06,
        "meta_mean_motion_ddot": 0,
        "tle_line1": "1 31272U 99025BNE 25354.39843113  .00000799  00000+0  35428-3 0  9990",
        "tle_line2": "2 31272  99.0919 226.4489 0106994  91.0458 270.2980 14.22935455970986"
      },
      "geometry": {
        "type": "Point",
        "coordinates": [
          78.72175149924468,
          73.1692968998468
        ]
      }
    },
    {
      "type": "Feature",
      "properties": {
        "norad_id": 31274,
        "name": "FENGYUN 1C DEB",
        "group": "fengyun-1c-debris",
        "lat": -55.208460075412354,
        "lon": -173.04462666543702,
        "alt_km": 1091.6828321252306,
        "timestamp": "2025-12-20T16:47:36.568057+00:00",
        "meta_object_name": "FENGYUN 1C DEB",
        "meta_object_id": "1999-025BNG",
        "meta_epoch": "2025-12-18T11:20:50.485056",
        "meta_mean_motion": 13.85641184,
        "meta_eccentricity": 0.02379909,
        "meta_inclination": 99.0034,
        "meta_ra_of_asc_node": 171.6237,
        "meta_arg_of_pericenter": 94.4918,
        "meta_mean_anomaly": 268.3465,
        "meta_ephemeris_type": 0,
        "meta_classification_type": "U",
        "meta_norad_cat_id": 31274,
        "meta_element_set_no": 999,
        "meta_rev_at_epoch": 94286,
        "meta_bstar": 0.00063345362,
        "meta_mean_motion_dot": 8.64e-06,
        "meta_mean_motion_ddot": 0,
        "tle_line1": "1 31274U 99025BNG 25352.47280654  .00000864  00000+0  63345-3 0  9996",
        "tle_line2": "2 31274  99.0034 171.6237 0237990  94.4918 268.3465 13.85641184942860"
      },
      "geometry": {
        "type": "Point",
        "coordinates": [
          -173.04462666543702,
          -55.208460075412354
        ]
      }
    }
  ]
}